STARLINK-35925          
1 66887U 25283K   25365.22192036  .00103761  00000+0  18457-2 0  9995
2 66887  53.1602 342.7455 0001217 106.8397 253.2746 15.49360357  5354
STARLINK-35919          
1 66888U 25283L   25365.35059418  .00122075  00000+0  21674-2 0  9990
2 66888  53.1604 342.1269 0001962  91.8286 268.2948 15.49327680  5375
STARLINK-35852          
1 66889U 25283M   25365.28523296  .05084319  00000+0  67649-1 0  9997
2 66889  53.1592 342.4280 0016761 295.0972  64.8300 15.53492178  5362
STARLINK-35885          
1 66890U 25283N   25365.50002315  .00019690  00000+0  36159-3 0  9997
2 66890  53.1591 341.4041 0001531  82.6998  35.1714 15.49276052  5449
STARLINK-35855          
1 66891U 25283P   25365.41407256  .00089601  00000+0  15986-2 0  9994
2 66891  53.1612 341.8117 0001595  72.4166 287.7017 15.49345989  5386
STARLINK-35883          
1 66892U 25283Q   25365.34922088  .00154201  00000+0  27228-2 0  9993
2 66892  53.1604 342.1153 0001407 100.3890 259.7278 15.49344325  5379
STARLINK-36033          
1 66893U 25283R   25365.50002315 -.02048729  00000+0 -50600-1 0  9994
2 66893  53.1595 341.4181 0001272  72.5987  37.5946 15.43513967  5445
STARLINK-35718          
1 66894U 25283S   25365.34852895  .00156612  00000+0  27594-2 0  9997
2 66894  53.1603 342.1118 0001112  96.8013 263.3123 15.49396571  5370
STARLINK-35971          
1 66895U 25283T   25365.50002315 -.02074874  00000+0 -45563-1 0  9998
2 66895  53.1593 341.3824 0001521  80.2703  46.8642 15.46962611  5440
STARLINK-35791          
1 66896U 25283U   25365.21917499  .00101404  00000+0  18059-2 0  9992
2 66896  53.1603 342.7250 0001166  67.7433 292.3700 15.49337185  5354
STARLINK-36079          
1 66897U 25283V   25365.50002315 -.02072288  00000+0 -45396-1 0  9991
2 66897  53.1593 341.3795 0001573  82.9277  46.2438 15.47027194  5447
STARLINK-36065          
1 66898U 25283W   25365.34716089  .00085983  00000+0  15361-2 0  9996
2 66898  53.1608 342.1004 0001559  83.7072 276.4115 15.49327289  5374
