CCSDS_OMM_VERS = 2.0
CREATION_DATE  = 
ORIGINATOR     = 

OBJECT_NAME    = STARLINK-35925
OBJECT_ID      = 2025-283K
CENTER_NAME    = EARTH
REF_FRAME      = TEME
TIME_SYSTEM    = UTC
MEAN_ELEMENT_THEORY = SGP/SGP4

EPOCH          = 2025-12-31T05:19:33.919104
MEAN_MOTION    = 15.49360357
ECCENTRICITY   = .0001217
INCLINATION    = 53.1602
RA_OF_ASC_NODE = 342.7455
ARG_OF_PERICENTER = 106.8397
MEAN_ANOMALY   = 253.2746

EPHEMERIS_TYPE = 0
CLASSIFICATION_TYPE = U
NORAD_CAT_ID   = 66887
ELEMENT_SET_NO = 999
REV_AT_EPOCH   = 535
BSTAR          = .18457E-2
MEAN_MOTION_DOT = .103761E-2
MEAN_MOTION_DDOT = 0

CCSDS_OMM_VERS = 2.0
CREATION_DATE  = 
ORIGINATOR     = 

OBJECT_NAME    = STARLINK-35919
OBJECT_ID      = 2025-283L
CENTER_NAME    = EARTH
REF_FRAME      = TEME
TIME_SYSTEM    = UTC
MEAN_ELEMENT_THEORY = SGP/SGP4

EPOCH          = 2025-12-31T08:24:51.337152
MEAN_MOTION    = 15.49327680
ECCENTRICITY   = .0001962
INCLINATION    = 53.1604
RA_OF_ASC_NODE = 342.1269
ARG_OF_PERICENTER = 91.8286
MEAN_ANOMALY   = 268.2948

EPHEMERIS_TYPE = 0
CLASSIFICATION_TYPE = U
NORAD_CAT_ID   = 66888
ELEMENT_SET_NO = 999
REV_AT_EPOCH   = 537
BSTAR          = .21674E-2
MEAN_MOTION_DOT = .122075E-2
MEAN_MOTION_DDOT = 0

CCSDS_OMM_VERS = 2.0
CREATION_DATE  = 
ORIGINATOR     = 

OBJECT_NAME    = STARLINK-35852
OBJECT_ID      = 2025-283M
CENTER_NAME    = EARTH
REF_FRAME      = TEME
TIME_SYSTEM    = UTC
MEAN_ELEMENT_THEORY = SGP/SGP4

EPOCH          = 2025-12-31T06:50:44.127744
MEAN_MOTION    = 15.53492178
ECCENTRICITY   = .0016761
INCLINATION    = 53.1592
RA_OF_ASC_NODE = 342.4280
ARG_OF_PERICENTER = 295.0972
MEAN_ANOMALY   = 64.8300

EPHEMERIS_TYPE = 0
CLASSIFICATION_TYPE = U
NORAD_CAT_ID   = 66889
ELEMENT_SET_NO = 999
REV_AT_EPOCH   = 536
BSTAR          = .67649E-1
MEAN_MOTION_DOT = .5084319E-1
MEAN_MOTION_DDOT = 0

CCSDS_OMM_VERS = 2.0
CREATION_DATE  = 
ORIGINATOR     = 

OBJECT_NAME    = STARLINK-35885
OBJECT_ID      = 2025-283N
CENTER_NAME    = EARTH
REF_FRAME      = TEME
TIME_SYSTEM    = UTC
MEAN_ELEMENT_THEORY = SGP/SGP4

EPOCH          = 2025-12-31T12:00:02.000160
MEAN_MOTION    = 15.49276052
ECCENTRICITY   = .0001531
INCLINATION    = 53.1591
RA_OF_ASC_NODE = 341.4041
ARG_OF_PERICENTER = 82.6998
MEAN_ANOMALY   = 35.1714

EPHEMERIS_TYPE = 0
CLASSIFICATION_TYPE = U
NORAD_CAT_ID   = 66890
ELEMENT_SET_NO = 999
REV_AT_EPOCH   = 544
BSTAR          = .36159E-3
MEAN_MOTION_DOT = .1969E-3
MEAN_MOTION_DDOT = 0

CCSDS_OMM_VERS = 2.0
CREATION_DATE  = 
ORIGINATOR     = 

OBJECT_NAME    = STARLINK-35855
OBJECT_ID      = 2025-283P
CENTER_NAME    = EARTH
REF_FRAME      = TEME
TIME_SYSTEM    = UTC
MEAN_ELEMENT_THEORY = SGP/SGP4

EPOCH          = 2025-12-31T09:56:15.869184
MEAN_MOTION    = 15.49345989
ECCENTRICITY   = .0001595
INCLINATION    = 53.1612
RA_OF_ASC_NODE = 341.8117
ARG_OF_PERICENTER = 72.4166
MEAN_ANOMALY   = 287.7017

EPHEMERIS_TYPE = 0
CLASSIFICATION_TYPE = U
NORAD_CAT_ID   = 66891
ELEMENT_SET_NO = 999
REV_AT_EPOCH   = 538
BSTAR          = .15986E-2
MEAN_MOTION_DOT = .89601E-3
MEAN_MOTION_DDOT = 0

CCSDS_OMM_VERS = 2.0
CREATION_DATE  = 
ORIGINATOR     = 

OBJECT_NAME    = STARLINK-35883
OBJECT_ID      = 2025-283Q
CENTER_NAME    = EARTH
REF_FRAME      = TEME
TIME_SYSTEM    = UTC
MEAN_ELEMENT_THEORY = SGP/SGP4

EPOCH          = 2025-12-31T08:22:52.684032
MEAN_MOTION    = 15.49344325
ECCENTRICITY   = .0001407
INCLINATION    = 53.1604
RA_OF_ASC_NODE = 342.1153
ARG_OF_PERICENTER = 100.3890
MEAN_ANOMALY   = 259.7278

EPHEMERIS_TYPE = 0
CLASSIFICATION_TYPE = U
NORAD_CAT_ID   = 66892
ELEMENT_SET_NO = 999
REV_AT_EPOCH   = 537
BSTAR          = .27228E-2
MEAN_MOTION_DOT = .154201E-2
MEAN_MOTION_DDOT = 0

CCSDS_OMM_VERS = 2.0
CREATION_DATE  = 
ORIGINATOR     = 

OBJECT_NAME    = STARLINK-36033
OBJECT_ID      = 2025-283R
CENTER_NAME    = EARTH
REF_FRAME      = TEME
TIME_SYSTEM    = UTC
MEAN_ELEMENT_THEORY = SGP/SGP4

EPOCH          = 2025-12-31T12:00:02.000160
MEAN_MOTION    = 15.43513967
ECCENTRICITY   = .0001272
INCLINATION    = 53.1595
RA_OF_ASC_NODE = 341.4181
ARG_OF_PERICENTER = 72.5987
MEAN_ANOMALY   = 37.5946

EPHEMERIS_TYPE = 0
CLASSIFICATION_TYPE = U
NORAD_CAT_ID   = 66893
ELEMENT_SET_NO = 999
REV_AT_EPOCH   = 544
BSTAR          = -.506E-1
MEAN_MOTION_DOT = -.2048729E-1
MEAN_MOTION_DDOT = 0

CCSDS_OMM_VERS = 2.0
CREATION_DATE  = 
ORIGINATOR     = 

OBJECT_NAME    = STARLINK-35718
OBJECT_ID      = 2025-283S
CENTER_NAME    = EARTH
REF_FRAME      = TEME
TIME_SYSTEM    = UTC
MEAN_ELEMENT_THEORY = SGP/SGP4

EPOCH          = 2025-12-31T08:21:52.901280
MEAN_MOTION    = 15.49396571
ECCENTRICITY   = .0001112
INCLINATION    = 53.1603
RA_OF_ASC_NODE = 342.1118
ARG_OF_PERICENTER = 96.8013
MEAN_ANOMALY   = 263.3123

EPHEMERIS_TYPE = 0
CLASSIFICATION_TYPE = U
NORAD_CAT_ID   = 66894
ELEMENT_SET_NO = 999
REV_AT_EPOCH   = 537
BSTAR          = .27594E-2
MEAN_MOTION_DOT = .156612E-2
MEAN_MOTION_DDOT = 0

CCSDS_OMM_VERS = 2.0
CREATION_DATE  = 
ORIGINATOR     = 

OBJECT_NAME    = STARLINK-35971
OBJECT_ID      = 2025-283T
CENTER_NAME    = EARTH
REF_FRAME      = TEME
TIME_SYSTEM    = UTC
MEAN_ELEMENT_THEORY = SGP/SGP4

EPOCH          = 2025-12-31T12:00:02.000160
MEAN_MOTION    = 15.46962611
ECCENTRICITY   = .0001521
INCLINATION    = 53.1593
RA_OF_ASC_NODE = 341.3824
ARG_OF_PERICENTER = 80.2703
MEAN_ANOMALY   = 46.8642

EPHEMERIS_TYPE = 0
CLASSIFICATION_TYPE = U
NORAD_CAT_ID   = 66895
ELEMENT_SET_NO = 999
REV_AT_EPOCH   = 544
BSTAR          = -.45563E-1
MEAN_MOTION_DOT = -.2074874E-1
MEAN_MOTION_DDOT = 0

CCSDS_OMM_VERS = 2.0
CREATION_DATE  = 
ORIGINATOR     = 

OBJECT_NAME    = STARLINK-35791
OBJECT_ID      = 2025-283U
CENTER_NAME    = EARTH
REF_FRAME      = TEME
TIME_SYSTEM    = UTC
MEAN_ELEMENT_THEORY = SGP/SGP4

EPOCH          = 2025-12-31T05:15:36.719136
MEAN_MOTION    = 15.49337185
ECCENTRICITY   = .0001166
INCLINATION    = 53.1603
RA_OF_ASC_NODE = 342.7250
ARG_OF_PERICENTER = 67.7433
MEAN_ANOMALY   = 292.3700

EPHEMERIS_TYPE = 0
CLASSIFICATION_TYPE = U
NORAD_CAT_ID   = 66896
ELEMENT_SET_NO = 999
REV_AT_EPOCH   = 535
BSTAR          = .18059E-2
MEAN_MOTION_DOT = .101404E-2
MEAN_MOTION_DDOT = 0

CCSDS_OMM_VERS = 2.0
CREATION_DATE  = 
ORIGINATOR     = 

OBJECT_NAME    = STARLINK-36079
OBJECT_ID      = 2025-283V
CENTER_NAME    = EARTH
REF_FRAME      = TEME
TIME_SYSTEM    = UTC
MEAN_ELEMENT_THEORY = SGP/SGP4

EPOCH          = 2025-12-31T12:00:02.000160
MEAN_MOTION    = 15.47027194
ECCENTRICITY   = .0001573
INCLINATION    = 53.1593
RA_OF_ASC_NODE = 341.3795
ARG_OF_PERICENTER = 82.9277
MEAN_ANOMALY   = 46.2438

EPHEMERIS_TYPE = 0
CLASSIFICATION_TYPE = U
NORAD_CAT_ID   = 66897
ELEMENT_SET_NO = 999
REV_AT_EPOCH   = 544
BSTAR          = -.45396E-1
MEAN_MOTION_DOT = -.2072288E-1
MEAN_MOTION_DDOT = 0

CCSDS_OMM_VERS = 2.0
CREATION_DATE  = 
ORIGINATOR     = 

OBJECT_NAME    = STARLINK-36065
OBJECT_ID      = 2025-283W
CENTER_NAME    = EARTH
REF_FRAME      = TEME
TIME_SYSTEM    = UTC
MEAN_ELEMENT_THEORY = SGP/SGP4

EPOCH          = 2025-12-31T08:19:54.700896
MEAN_MOTION    = 15.49327289
ECCENTRICITY   = .0001559
INCLINATION    = 53.1608
RA_OF_ASC_NODE = 342.1004
ARG_OF_PERICENTER = 83.7072
MEAN_ANOMALY   = 276.4115

EPHEMERIS_TYPE = 0
CLASSIFICATION_TYPE = U
NORAD_CAT_ID   = 66898
ELEMENT_SET_NO = 999
REV_AT_EPOCH   = 537
BSTAR          = .15361E-2
MEAN_MOTION_DOT = .85983E-3
MEAN_MOTION_DDOT = 0

